[{"OBJECT_NAME":"STARLINK-5556","OBJECT_ID":"2023-013BG","EPOCH":"2026-03-09T01:53:02.957280","MEAN_MOTION":15.02534781,"ECCENTRICITY":4.955e-5,"INCLINATION":43.0028,"RA_OF_ASC_NODE":316.1155,"ARG_OF_PERICENTER":314.7467,"MEAN_ANOMALY":45.3335,"EPHEMERIS_TYPE":0,"CLASSIFICATION_TYPE":"U","NORAD_CAT_ID":55385,"ELEMENT_SET_NO":999,"REV_AT_EPOCH":17147,"BSTAR":-0.0001851701,"MEAN_MOTION_DOT":-2.704e-5,"MEAN_MOTION_DDOT":0},{"OBJECT_NAME":"CZ-6A DEB","OBJECT_ID":"2022-151WD","EPOCH":"2026-03-09T18:15:50.585760","MEAN_MOTION":14.95909888,"ECCENTRICITY":0.00406186,"INCLINATION":98.6454,"RA_OF_ASC_NODE":143.7847,"ARG_OF_PERICENTER":193.5421,"MEAN_ANOMALY":166.4711,"EPHEMERIS_TYPE":0,"CLASSIFICATION_TYPE":"U","NORAD_CAT_ID":55212,"ELEMENT_SET_NO":999,"REV_AT_EPOCH":17107,"BSTAR":0.0046813987,"MEAN_MOTION_DOT":0.00053565,"MEAN_MOTION_DDOT":0}]
